NORAD_CAT_ID,OBJECT_NAME,OBJECT_TYPE,EPOCH,MEAN_MOTION,ECCENTRICITY,INCLINATION,RA_OF_ASC_NODE,ARG_OF_PERICENTER,MEAN_ANOMALY,BSTAR,MEAN_MOTION_DOT,MEAN_MOTION_DDOT,TLE_LINE0,TLE_LINE1,TLE_LINE2,SEMIMAJOR_AXIS,PERIOD,APOGEE,PERIGEE,DECAYED
55317.0,STARLINK-5265,PAYLOAD,2023-05-06 06:49:00,15.69929314,0.0003359,69.9976,128.7661,260.1401,99.9415,1.0006e-05,9.91e-06,0.0,0 STARLINK-5265,1 55317U 23010BA  23126.28403287  .00000991  00000-0  10006-4 0  9995,2 55317  69.9976 128.7661 0003359 260.1401  99.9415 15.69929314 17266,6737.236,91.724,361.364,356.838,0.0
55317.0,STARLINK-5265,PAYLOAD,2023-05-06 09:52:30,15.6993016,0.0003371,69.9976,128.4077,261.1745,98.9069,1.155e-05,1.177e-05,0.0,0 STARLINK-5265,1 55317U 23010BA  23126.41146524  .00001177  00000-0  11550-4 0  9990,2 55317  69.9976 128.4077 0003371 261.1745  98.9069 15.69930160 18479,6737.234,91.724,361.37,356.828,0.0
55317.0,STARLINK-5265,PAYLOAD,2023-05-07 02:41:47,15.69922393,0.0003252,69.9977,126.4369,258.9683,101.1147,1.2449e-05,1.284e-05,0.0,0 STARLINK-5265,1 55317U 23010BA  23127.11235142  .00001284  00000-0  12449-4 0  9990,2 55317  69.9977 126.4369 0003252 258.9683 101.1147 15.69922393 17398,6737.256,91.724,361.312,356.93,0.0
55317.0,STARLINK-5265,PAYLOAD,2023-05-07 08:48:47,15.69932967,0.0002974,69.9975,125.7211,261.5041,98.5817,1.7569e-05,1.901e-05,0.0,0 STARLINK-5265,1 55317U 23010BA  23127.36721096  .00001901  00000-0  17569-4 0  9999,2 55317  69.9975 125.7211 0002974 261.5041  98.5817 15.69932967 17438,6737.226,91.724,361.094,357.087,0.0
55317.0,STARLINK-5265,PAYLOAD,2023-05-08 03:09:49,15.69916228,0.0003241,69.9979,123.571,260.0659,100.0171,-7.3448e-06,-1.095e-05,0.0,0 STARLINK-5265,1 55317U 23010BA  23128.13182844 -.00001095  00000-0 -73448-5 0  9992,2 55317  69.9979 123.5710 0003241 260.0659 100.0171 15.69916228 17556,6737.274,91.725,361.322,356.955,0.0
55317.0,STARLINK-5265,PAYLOAD,2023-05-08 09:16:44,15.69998883,0.0002906,69.9968,122.8524,261.8933,98.1933,8.4438e-05,9.983e-05,0.0,0 STARLINK-5265,1 55317U 23010BA  23128.38662987  .00009983  00000-0  84438-4 0  9992,2 55317  69.9968 122.8524 0002906 261.8933  98.1933 15.69998883 17594,6737.037,91.72,360.86,356.944,0.0
55317.0,STARLINK-5265,PAYLOAD,2023-05-09 02:06:06,15.69919613,0.0003063,69.9976,120.8844,264.313,95.7716,2.2646e-06,6e-07,0.0,0 STARLINK-5265,1 55317U 23010BA  23129.08757634  .00000060  00000-0  22646-5 0  9995,2 55317  69.9976 120.8844 0003063 264.3130  95.7716 15.69919613 17707,6737.264,91.724,361.193,357.065,0.0
55317.0,STARLINK-5265,PAYLOAD,2023-05-10 08:41:09,15.69919751,0.000319,69.9976,117.3023,265.6578,94.4253,-5.2821e-06,-8.48e-06,0.0,0 STARLINK-5265,1 55317U 23010BA  23130.36191414 -.00000848  00000-0 -52821-5 0  9990,2 55317  69.9976 117.3023 0003190 265.6578  94.4253 15.69919751 19097,6737.264,91.724,361.278,356.979,0.0
55317.0,STARLINK-5265,PAYLOAD,2023-05-11 01:30:25,15.69923322,0.0003171,69.9974,115.3293,268.1257,91.9576,1.4156e-05,1.49e-05,0.0,0 STARLINK-5265,1 55317U 23010BA  23131.06279217  .00001490  00000-0  14156-4 0  9996,2 55317  69.9974 115.3293 0003171 268.1257  91.9576 15.69923322 18013,6737.253,91.724,361.255,356.982,0.0
55317.0,STARLINK-5265,PAYLOAD,2023-05-11 09:09:12,15.69907249,0.0003514,69.9962,114.4327,269.8996,90.1797,-8.5566e-06,-1.241e-05,0.0,0 STARLINK-5265,1 55317U 23010BA  23131.38138930 -.00001241  00000-0 -85566-5 0  9997,2 55317  69.9962 114.4327 0003514 269.8996  90.1797 15.69907249 19250,6737.299,91.725,361.532,356.797,0.0
55317.0,STARLINK-5265,PAYLOAD,2023-05-12 00:26:42,15.69920579,0.0003838,69.9955,112.6399,271.939,88.1366,-4.5788e-06,-7.64e-06,0.0,0 STARLINK-5265,1 55317U 23010BA  23132.01854963 -.00000764  00000-0 -45788-5 0  9990,2 55317  69.9955 112.6399 0003838 271.9390  88.1366 15.69920579 18161,6737.261,91.724,361.712,356.54,0.0
55317.0,STARLINK-5265,PAYLOAD,2023-05-12 01:58:27,15.69921574,0.0003878,69.9957,112.4609,276.6468,83.4286,-2.7377e-06,-5.42e-06,0.0,0 STARLINK-5265,1 55317U 23010BA  23132.08226620 -.00000542  00000-0 -27377-5 0  9998,2 55317  69.9957 112.4609 0003878 276.6468  83.4286 15.69921574 19365,6737.258,91.724,361.736,356.511,0.0
55317.0,STARLINK-5265,PAYLOAD,2023-05-12 15:44:13,15.69926886,0.0003035,69.9975,110.8507,268.5975,91.4873,9.5218e-06,9.32e-06,0.0,0 STARLINK-5265,1 55317U 23010BA  23132.65571032  .00000932  00000-0  95218-5 0  9991,2 55317  69.9975 110.8507 0003035 268.5975  91.4873 15.69926886 19454,6737.243,91.724,361.153,357.063,0.0
55317.0,STARLINK-5265,PAYLOAD,2023-05-12 23:22:58,15.69929754,0.0003069,69.9975,109.9549,266.9651,93.1193,7.4832e-06,6.87e-06,0.0,0 STARLINK-5265,1 55317U 23010BA  23132.97429217  .00000687  00000-0  74832-5 0  9999,2 55317  69.9975 109.9549 0003069 266.9651  93.1193 15.69929754 18314,6737.235,91.724,361.168,357.032,0.0
55317.0,STARLINK-5265,PAYLOAD,2023-05-13 10:05:16,15.69903787,0.0003188,69.9976,108.7016,269.3532,90.7299,-2.268e-05,-2.936e-05,0.0,0 STARLINK-5265,1 55317U 23010BA  23133.42033022 -.00002936  00000-0 -22680-4 0  9999,2 55317  69.9976 108.7016 0003188 269.3532  90.7299 15.69903787 18383,6737.309,91.725,361.322,357.026,0.0
55317.0,STARLINK-5265,PAYLOAD,2023-05-14 07:29:46,15.69933794,0.0002983,69.9971,106.1936,266.8976,93.1879,1.4219e-05,1.498e-05,0.0,0 STARLINK-5265,1 55317U 23010BA  23134.31234116  .00001498  00000-0  14219-4 0  9994,2 55317  69.9971 106.1936 0002983 266.8976  93.1879 15.69933794 18525,6737.223,91.724,361.098,357.079,0.0
55317.0,STARLINK-5265,PAYLOAD,2023-05-14 10:33:16,15.69930444,0.0002847,69.9969,105.8341,262.8453,97.2419,9.7489e-06,9.6e-06,0.0,0 STARLINK-5265,1 55317U 23010BA  23134.43977654  .00000960  00000-0  97489-5 0  9992,2 55317  69.9969 105.8341 0002847 262.8453  97.2419 15.69930444 19731,6737.233,91.724,361.016,357.18,0.0
55317.0,STARLINK-5265,PAYLOAD,2023-05-15 00:19:03,15.69923256,0.0002739,69.9984,104.2239,267.9143,92.1739,1.2526e-06,-6.2e-07,0.0,0 STARLINK-5265,1 55317U 23010BA  23135.01323329 -.00000062  00000-0  12526-5 0  9994,2 55317  69.9984 104.2239 0002739 267.9143  92.1739 15.69923256 18639,6737.254,91.724,360.964,357.273,0.0
55317.0,STARLINK-5265,PAYLOAD,2023-05-15 07:57:49,15.69910348,0.0002699,69.9984,103.3285,268.3525,91.7362,-1.2817e-05,-1.752e-05,0.0,0 STARLINK-5265,1 55317U 23010BA  23135.33182660 -.00001752  00000-0 -12817-4 0  9990,2 55317  69.9984 103.3285 0002699 268.3525  91.7362 15.69910348 18684,6737.29,91.725,360.974,357.337,0.0
55317.0,STARLINK-5265,PAYLOAD,2023-05-15 15:36:34,15.69910088,0.0003132,69.9966,102.4317,266.8381,93.2456,2.3614e-05,2.626e-05,0.0,0 STARLINK-5265,1 55317U 23010BA  23135.65040413  .00002626  00000-0  23614-4 0  9990,2 55317  69.9966 102.4317 0003132 266.8381  93.2456 15.69910088 18734,6737.291,91.725,361.266,357.046,0.0
55317.0,STARLINK-5265,PAYLOAD,2023-05-16 06:54:05,15.69924981,0.0002748,69.9977,100.6402,259.6379,100.4507,-1.2828e-06,-3.67e-06,0.0,0 STARLINK-5265,1 55317U 23010BA  23136.28756891 -.00000367  00000-0 -12828-5 0  9992,2 55317  69.9977 100.6402 0002748 259.6379 100.4507 15.69924981 18836,6737.249,91.724,360.965,357.262,0.0
55317.0,STARLINK-5265,PAYLOAD,2023-05-17 01:15:06,15.69930528,0.0003149,69.9984,98.492,254.7268,105.358,1.3149e-05,1.369e-05,0.0,0 STARLINK-5265,1 55317U 23010BA  23137.05216057  .00001369  00000-0  13149-4 0  9990,2 55317  69.9984  98.4920 0003149 254.7268 105.3580 15.69930528 18954,6737.233,91.724,361.219,356.976,0.0
55317.0,STARLINK-5265,PAYLOAD,2023-05-17 07:22:08,15.69919549,0.0003288,69.998,97.7745,271.8242,88.2577,-8.8209e-07,-3.19e-06,0.0,0 STARLINK-5265,1 55317U 23010BA  23137.30703770 -.00000319  00000-0 -88209-6 0  9998,2 55317  69.9980  97.7745 0003288 271.8242  88.2577 15.69919549 18992,6737.264,91.724,361.344,356.914,0.0
55317.0,STARLINK-5265,PAYLOAD,2023-05-18 06:18:24,15.69921536,0.0003079,69.9979,95.088,260.6728,99.412,7.2864e-06,6.63e-06,0.0,0 STARLINK-5265,1 55317U 23010BA  23138.26278735  .00000663  00000-0  72864-5 0  9991,2 55317  69.9979  95.0880 0003079 260.6728  99.4120 15.69921536 20332,6737.258,91.724,361.198,357.049,0.0
55317.0,STARLINK-5265,PAYLOAD,2023-05-18 20:04:10,15.69921609,0.000332,69.9979,93.4753,266.11,93.9716,1.6621e-05,1.786e-05,0.0,0 STARLINK-5265,1 55317U 23010BA  23138.83623364  .00001786  00000-0  16621-4 0  9991,2 55317  69.9979  93.4753 0003320 266.1100  93.9716 15.69921609 20428,6737.258,91.724,361.36,356.887,0.0
55317.0,STARLINK-5265,PAYLOAD,2023-05-19 00:39:25,15.69923407,0.0003173,69.9984,92.9378,265.3153,94.7681,1.3803e-05,1.447e-05,0.0,0 STARLINK-5265,1 55317U 23010BA  23139.02738378  .00001447  00000-0  13803-4 0  9998,2 55317  69.9984  92.9378 0003173 265.3153  94.7681 15.69923407 19264,6737.253,91.724,361.256,356.98,0.0
55317.0,STARLINK-5265,PAYLOAD,2023-05-19 06:46:26,15.69918856,0.0003349,69.9982,92.2227,267.3664,92.7148,1.285e-05,1.332e-05,0.0,0 STARLINK-5265,1 55317U 23010BA  23139.28225459  .00001332  00000-0  12850-4 0  9991,2 55317  69.9982  92.2227 0003349 267.3664  92.7148 15.69918856 19305,6737.266,91.724,361.387,356.875,0.0
55317.0,STARLINK-5265,PAYLOAD,2023-05-19 22:03:58,15.69921648,0.0003405,69.9976,90.4299,266.7045,93.3761,4.7814e-06,3.62e-06,0.0,0 STARLINK-5265,1 55317U 23010BA  23139.91942299  .00000362  00000-0  47814-5 0  9990,2 55317  69.9976  90.4299 0003405 266.7045  93.3761 15.69921648 20590,6737.258,91.724,361.417,356.829,0.0
55317.0,STARLINK-5265,PAYLOAD,2023-05-20 05:42:43,15.69930142,0.0003145,69.9979,89.534,265.6079,94.4757,1.5823e-05,1.691e-05,0.0,0 STARLINK-5265,1 55317U 23010BA  23140.23799953  .00001691  00000-0  15823-4 0  9994,2 55317  69.9979  89.5340 0003145 265.6079  94.4757 15.69930142 19454,6737.234,91.724,361.218,356.98,0.0
55317.0,STARLINK-5265,PAYLOAD,2023-05-20 21:00:13,15.69941121,0.0003303,69.9981,87.7424,267.917,92.1647,2.2218e-05,2.461e-05,0.0,0 STARLINK-5265,1 55317U 23010BA  23140.87515542  .00002461  00000-0  22218-4 0  9996,2 55317  69.9981  87.7424 0003303 267.9170  92.1647 15.69941121 20749,6737.202,91.723,361.293,356.842,0.0
